start=new Date('2022-04-24T00:00:00.000Z').valueOf();
sats=[{"GP_ID":"201885563","ECCENTRICITY":"0.00013530","COUNTRY_CODE":"US","APOAPSIS":"548.176","TLE_LINE2":"2 47638  53.0494 213.7832 0001353  64.4912 295.6217 15.06391718 67353","MEAN_ELEMENT_THEORY":"SGP4","OBJECT_NAME":"STARLINK-2015","OBJECT_ID":"2021-012U","NORAD_CAT_ID":"47638","LAUNCH_DATE":"2021-02-16","REV_AT_EPOCH":"6735","SEMIMAJOR_AXIS":"6925.374","CENTER_NAME":"EARTH","SITE":"AFETR","BSTAR":"-0.00011158000000","CLASSIFICATION_TYPE":"U","DECAY_DATE":null,"RA_OF_ASC_NODE":"213.7832","MEAN_MOTION_DDOT":"0.0000000000000","MEAN_MOTION":"15.06391718","INCLINATION":"53.0494","TIME_SYSTEM":"UTC","REF_FRAME":"TEME","TLE_LINE1":"1 47638U 21012U   22113.58273821 -.00001943  00000-0 -11158-3 0  9997","EPOCH":"2022-04-23T13:59:08.581344","PERIAPSIS":"546.302","EPHEMERIS_TYPE":"0","ELEMENT_SET_NO":"999","FILE":"3412953","OBJECT_TYPE":"PAYLOAD","ARG_OF_PERICENTER":"64.4912","MEAN_ANOMALY":"295.6217","MEAN_MOTION_DOT":"-0.00001943","RCS_SIZE":"LARGE","PERIOD":"95.593"},{"OBJECT_NAME":"STARLINK-2016","MEAN_ELEMENT_THEORY":"SGP4","TLE_LINE2":"2 47639  53.0558 287.9640 0001353  65.2010 294.9120 15.06400733 66333","COUNTRY_CODE":"US","APOAPSIS":"548.148","GP_ID":"201885566","ECCENTRICITY":"0.00013530","SITE":"AFETR","CENTER_NAME":"EARTH","MEAN_MOTION_DDOT":"0.0000000000000","DECAY_DATE":null,"RA_OF_ASC_NODE":"287.9640","CLASSIFICATION_TYPE":"U","BSTAR":"0.00001083300000","NORAD_CAT_ID":"47639","LAUNCH_DATE":"2021-02-16","OBJECT_ID":"2021-012V","SEMIMAJOR_AXIS":"6925.346","REV_AT_EPOCH":"6633","TLE_LINE1":"1 47639U 21012V   22113.76195991 -.00000120  00000-0  10833-4 0  9994","REF_FRAME":"TEME","EPOCH":"2022-04-23T18:17:13.336224","MEAN_MOTION":"15.06400733","TIME_SYSTEM":"UTC","INCLINATION":"53.0558","MEAN_ANOMALY":"294.9120","MEAN_MOTION_DOT":"-0.00000120","ARG_OF_PERICENTER":"65.2010","PERIOD":"95.592","RCS_SIZE":"LARGE","EPHEMERIS_TYPE":"0","PERIAPSIS":"546.274","OBJECT_TYPE":"PAYLOAD","FILE":"3412953","ELEMENT_SET_NO":"999"},{"SITE":"AFETR","CENTER_NAME":"EARTH","MEAN_MOTION_DDOT":"0.0000000000000","BSTAR":"-0.00006287600000","CLASSIFICATION_TYPE":"U","DECAY_DATE":null,"RA_OF_ASC_NODE":"307.9871","LAUNCH_DATE":"2021-02-16","NORAD_CAT_ID":"47640","OBJECT_ID":"2021-012W","SEMIMAJOR_AXIS":"6925.382","REV_AT_EPOCH":"6605","TLE_LINE2":"2 47640  53.0548 307.9871 0001730  73.7884 286.3295 15.06388952 66050","MEAN_ELEMENT_THEORY":"SGP4","OBJECT_NAME":"STARLINK-2018","APOAPSIS":"548.446","COUNTRY_CODE":"US","ECCENTRICITY":"0.00017300","GP_ID":"201886062","MEAN_ANOMALY":"286.3295","MEAN_MOTION_DOT":"-0.00001218","ARG_OF_PERICENTER":"73.7884","PERIOD":"95.593","RCS_SIZE":"LARGE","PERIAPSIS":"546.049","EPHEMERIS_TYPE":"0","OBJECT_TYPE":"PAYLOAD","FILE":"3412953","ELEMENT_SET_NO":"999","TLE_LINE1":"1 47640U 21012W   22113.75643684 -.00001218  00000-0 -62876-4 0  9996","REF_FRAME":"TEME","EPOCH":"2022-04-23T18:09:16.142976","MEAN_MOTION":"15.06388952","TIME_SYSTEM":"UTC","INCLINATION":"53.0548"},{"DECAY_DATE":null,"RA_OF_ASC_NODE":"212.2760","BSTAR":"-0.00095409000000","CLASSIFICATION_TYPE":"U","MEAN_MOTION_DDOT":"0.0000000000000","CENTER_NAME":"EARTH","SITE":"AFETR","REV_AT_EPOCH":"6741","SEMIMAJOR_AXIS":"6925.321","OBJECT_ID":"2021-012X","LAUNCH_DATE":"2021-02-16","NORAD_CAT_ID":"47641","COUNTRY_CODE":"US","APOAPSIS":"548.414","OBJECT_NAME":"STARLINK-2019","MEAN_ELEMENT_THEORY":"SGP4","TLE_LINE2":"2 47641  53.0548 212.2760 0001772  50.0799  42.0020 15.06408861 67411","GP_ID":"201886707","ECCENTRICITY":"0.00017720","RCS_SIZE":"LARGE","PERIOD":"95.592","ARG_OF_PERICENTER":"50.0799","MEAN_ANOMALY":"42.0020","MEAN_MOTION_DOT":"-0.00014468","FILE":"3412963","ELEMENT_SET_NO":"999","OBJECT_TYPE":"PAYLOAD","EPHEMERIS_TYPE":"0","PERIAPSIS":"545.959","EPOCH":"2022-04-23T22:00:00.999936","REF_FRAME":"TEME","TLE_LINE1":"1 47641U 21012X   22113.91667824 -.00014468  00000-0 -95409-3 0  9995","INCLINATION":"53.0548","TIME_SYSTEM":"UTC","MEAN_MOTION":"15.06408861"},{"CENTER_NAME":"EARTH","SITE":"AFETR","BSTAR":"0.00004803500000","CLASSIFICATION_TYPE":"U","DECAY_DATE":null,"RA_OF_ASC_NODE":"304.1531","MEAN_MOTION_DDOT":"0.0000000000000","OBJECT_ID":"2021-012Y","NORAD_CAT_ID":"47642","LAUNCH_DATE":"2021-02-16","REV_AT_EPOCH":"6659","SEMIMAJOR_AXIS":"6925.363","COUNTRY_CODE":"US","APOAPSIS":"548.036","TLE_LINE2":"2 47642  53.0518 304.1531 0001166  92.3377 267.7746 15.06395271 66593","OBJECT_NAME":"STARLINK-2020","MEAN_ELEMENT_THEORY":"SGP4","ECCENTRICITY":"0.00011660","GP_ID":"201880466","ARG_OF_PERICENTER":"92.3377","MEAN_ANOMALY":"267.7746","MEAN_MOTION_DOT":"0.00000434","RCS_SIZE":"LARGE","PERIOD":"95.592","PERIAPSIS":"546.421","EPHEMERIS_TYPE":"0","FILE":"3412883","ELEMENT_SET_NO":"999","OBJECT_TYPE":"PAYLOAD","REF_FRAME":"TEME","TLE_LINE1":"1 47642U 21012Y   22113.49703783  .00000434  00000-0  48035-4 0  9994","EPOCH":"2022-04-23T11:55:44.068512","MEAN_MOTION":"15.06395271","INCLINATION":"53.0518","TIME_SYSTEM":"UTC"},{"MEAN_MOTION":"15.06389647","INCLINATION":"53.0548","TIME_SYSTEM":"UTC","REF_FRAME":"TEME","TLE_LINE1":"1 47643U 21012Z   22113.51132356 -.00000788  00000-0 -33989-4 0  9996","EPOCH":"2022-04-23T12:16:18.355584","PERIAPSIS":"546.035","EPHEMERIS_TYPE":"0","FILE":"3412883","ELEMENT_SET_NO":"999","OBJECT_TYPE":"PAYLOAD","ARG_OF_PERICENTER":"61.0914","MEAN_MOTION_DOT":"-0.00000788","MEAN_ANOMALY":"299.0250","RCS_SIZE":"LARGE","PERIOD":"95.593","ECCENTRICITY":"0.00017480","GP_ID":"201881716","COUNTRY_CODE":"US","APOAPSIS":"548.456","TLE_LINE2":"2 47643  53.0548 289.0920 0001748  61.0914 299.0250 15.06389647 66819","MEAN_ELEMENT_THEORY":"SGP4","OBJECT_NAME":"STARLINK-2022","OBJECT_ID":"2021-012Z","LAUNCH_DATE":"2021-02-16","NORAD_CAT_ID":"47643","REV_AT_EPOCH":"6681","SEMIMAJOR_AXIS":"6925.380","CENTER_NAME":"EARTH","SITE":"AFETR","BSTAR":"-0.00003398900000","CLASSIFICATION_TYPE":"U","RA_OF_ASC_NODE":"289.0920","DECAY_DATE":null,"MEAN_MOTION_DDOT":"0.0000000000000"},{"REV_AT_EPOCH":"6654","SEMIMAJOR_AXIS":"6925.367","OBJECT_ID":"2021-012AA","NORAD_CAT_ID":"47644","LAUNCH_DATE":"2021-02-16","CLASSIFICATION_TYPE":"U","BSTAR":"0.00000802140000","RA_OF_ASC_NODE":"309.0349","DECAY_DATE":null,"MEAN_MOTION_DDOT":"0.0000000000000","CENTER_NAME":"EARTH","SITE":"AFETR","GP_ID":"201881467","ECCENTRICITY":"0.00014020","APOAPSIS":"548.202","COUNTRY_CODE":"US","TLE_LINE2":"2 47644  53.0542 309.0349 0001402  73.0548 287.0594 15.06394134 66540","MEAN_ELEMENT_THEORY":"SGP4","OBJECT_NAME":"STARLINK-2026","FILE":"3412883","ELEMENT_SET_NO":"999","OBJECT_TYPE":"PAYLOAD","PERIAPSIS":"546.261","EPHEMERIS_TYPE":"0","RCS_SIZE":"LARGE","PERIOD":"95.593","ARG_OF_PERICENTER":"73.0548","MEAN_MOTION_DOT":"-0.00000162","MEAN_ANOMALY":"287.0594","INCLINATION":"53.0542","TIME_SYSTEM":"UTC","MEAN_MOTION":"15.06394134","EPOCH":"2022-04-23T12:34:52.722912","REF_FRAME":"TEME","TLE_LINE1":"1 47644U 21012AA  22113.52422133 -.00000162  00000-0  80214-5 0  9992"},{"ECCENTRICITY":"0.00015950","GP_ID":"201885606","APOAPSIS":"548.321","COUNTRY_CODE":"US","OBJECT_NAME":"STARLINK-2027","MEAN_ELEMENT_THEORY":"SGP4","TLE_LINE2":"2 47645  53.0554 277.8433 0001595  85.0736 275.0435 15.06399128 66476","OBJECT_ID":"2021-012AB","LAUNCH_DATE":"2021-02-16","NORAD_CAT_ID":"47645","REV_AT_EPOCH":"6647","SEMIMAJOR_AXIS":"6925.351","CENTER_NAME":"EARTH","SITE":"AFETR","DECAY_DATE":null,"RA_OF_ASC_NODE":"277.8433","BSTAR":"0.00001620500000","CLASSIFICATION_TYPE":"U","MEAN_MOTION_DDOT":"0.0000000000000","MEAN_MOTION":"15.06399128","INCLINATION":"53.0554","TIME_SYSTEM":"UTC","REF_FRAME":"TEME","TLE_LINE1":"1 47645U 21012AB  22113.78773685 -.00000040  00000-0  16205-4 0  9995","EPOCH":"2022-04-23T18:54:20.463840","EPHEMERIS_TYPE":"0","PERIAPSIS":"546.112","ELEMENT_SET_NO":"999","FILE":"3412939","OBJECT_TYPE":"PAYLOAD","ARG_OF_PERICENTER":"85.0736","MEAN_ANOMALY":"275.0435","MEAN_MOTION_DOT":"-0.00000040","RCS_SIZE":"LARGE","PERIOD":"95.592"},{"APOAPSIS":"548.625","COUNTRY_CODE":"US","MEAN_ELEMENT_THEORY":"SGP4","OBJECT_NAME":"STARLINK-2028","TLE_LINE2":"2 47646  53.0546 244.1130 0002017  37.7611 322.3519 15.06395170 67423","ECCENTRICITY":"0.00020170","GP_ID":"201880966","RA_OF_ASC_NODE":"244.1130","DECAY_DATE":null,"CLASSIFICATION_TYPE":"U","BSTAR":"-0.00010852000000","MEAN_MOTION_DDOT":"0.0000000000000","CENTER_NAME":"EARTH","SITE":"AFETR","REV_AT_EPOCH":"6742","SEMIMAJOR_AXIS":"6925.363","OBJECT_ID":"2021-012AC","NORAD_CAT_ID":"47646","LAUNCH_DATE":"2021-02-16","EPOCH":"2022-04-23T12:12:56.572704","REF_FRAME":"TEME","TLE_LINE1":"1 47646U 21012AC  22113.50898811 -.00001898  00000-0 -10852-3 0  9999","INCLINATION":"53.0546","TIME_SYSTEM":"UTC","MEAN_MOTION":"15.06395170","RCS_SIZE":"LARGE","PERIOD":"95.592","ARG_OF_PERICENTER":"37.7611","MEAN_ANOMALY":"322.3519","MEAN_MOTION_DOT":"-0.00001898","ELEMENT_SET_NO":"999","FILE":"3412883","OBJECT_TYPE":"PAYLOAD","EPHEMERIS_TYPE":"0","PERIAPSIS":"545.832"},{"MEAN_ELEMENT_THEORY":"SGP4","OBJECT_NAME":"STARLINK-2030","TLE_LINE2":"2 47647  53.0536 308.9966 0001414  71.0337 289.0805 15.06397977 66541","APOAPSIS":"548.199","COUNTRY_CODE":"US","GP_ID":"201881217","ECCENTRICITY":"0.00014140","SITE":"AFETR","CENTER_NAME":"EARTH","MEAN_MOTION_DDOT":"0.0000000000000","RA_OF_ASC_NODE":"308.9966","DECAY_DATE":null,"CLASSIFICATION_TYPE":"U","BSTAR":"-0.00006656300000","LAUNCH_DATE":"2021-02-16","NORAD_CAT_ID":"47647","OBJECT_ID":"2021-012AD","SEMIMAJOR_AXIS":"6925.355","REV_AT_EPOCH":"6654","TLE_LINE1":"1 47647U 21012AD  22113.53527904 -.00001273  00000-0 -66563-4 0  9993","REF_FRAME":"TEME","EPOCH":"2022-04-23T12:50:48.109056","MEAN_MOTION":"15.06397977","TIME_SYSTEM":"UTC","INCLINATION":"53.0536","MEAN_MOTION_DOT":"-0.00001273","MEAN_ANOMALY":"289.0805","ARG_OF_PERICENTER":"71.0337","PERIOD":"95.592","RCS_SIZE":"LARGE","EPHEMERIS_TYPE":"0","PERIAPSIS":"546.241","OBJECT_TYPE":"PAYLOAD","ELEMENT_SET_NO":"999","FILE":"3412883"}];
